H1 CPF 01  gfz 2022 07 23 12  7042 tandemx   
H2 1003001  6202 36605    2022 07 23 12 59 42 2022 07 28 00 00 42   120 1 1  0 0 0
H9
10 0 59787  82062.000000  0     621922.799  -4124102.030   5472308.935
10 0 59787  82182.000000  0     288407.455  -3419307.749   5962567.836
10 0 59787  82302.000000  0     -37234.877  -2649043.799   6347979.500
10 0 59787  82422.000000  0    -348292.451  -1826969.646   6621803.325
10 0 59787  82542.000000  0    -638559.062   -967751.283   6779254.154
10 0 59787  82662.000000  0    -902456.023    -86797.920   6817582.025
10 0 59787  82782.000000  0   -1135138.408    800015.293   6736117.526
10 0 59787  82902.000000  0   -1332583.558   1676633.079   6536282.370
10 0 59787  83022.000000  0   -1491660.490   2527109.957   6221566.113
10 0 59787  83142.000000  0   -1610179.870   3335900.488   5797469.034
10 0 59787  83262.000000  0   -1686923.254   4088145.083   5271411.043
10 0 59787  83382.000000  0   -1721650.977   4769947.128   4652608.796
10 0 59787  83502.000000  0   -1715089.367   5368636.978   3951919.536
10 0 59787  83622.000000  0   -1668896.074   5873015.849   3181654.006
10 0 59787  83742.000000  0   -1585606.089   6273574.359   2355361.256
10 0 59787  83862.000000  0   -1468558.043   6562681.412   1487588.293
10 0 59787  83982.000000  0   -1321801.257   6734737.557    593618.784
10 0 59787  84102.000000  0   -1149987.362   6786288.319   -310802.681
10 0 59787  84222.000000  0    -958249.260   6716096.798  -1209756.548
10 0 59787  84342.000000  0    -752069.110   6525169.286  -2087440.060
10 0 59787  84462.000000  0    -537140.817   6216732.667  -2928452.940
10 0 59787  84582.000000  0    -319230.572   5796169.190  -3718070.849
10 0 59787  84702.000000  0    -104037.958   5270911.389  -4442503.806
10 0 59787  84822.000000  0     102938.789   4650298.461  -5089134.769
10 0 59787  84942.000000  0     296530.445   3945398.753  -5646733.496
10 0 59787  85062.000000  0     472014.422   3168802.267  -6105643.279
10 0 59787  85182.000000  0     625219.311   2334388.099  -6457937.208
10 0 59787  85302.000000  0     752615.038   1457073.411  -6697543.172
10 0 59787  85422.000000  0     851387.375    552547.946  -6820338.325
10 0 59787  85542.000000  0     919495.231   -363002.657  -6824212.547
10 0 59787  85662.000000  0     955710.254  -1273180.984  -6709100.149
10 0 59787  85782.000000  0     959638.099  -2161663.573  -6476979.103
10 0 59787  85902.000000  0     931721.892  -3012485.055  -6131841.677
10 0 59787  86022.000000  0     873227.213  -3810321.253  -5679635.507
10 0 59787  86142.000000  0     786207.959  -4540764.645  -5128170.195
10 0 59787  86262.000000  0     673455.424  -5190585.914  -4486993.552
10 0 59787  86382.000000  0     538429.681  -5747979.901  -3767237.984
99
